{
  "type": "FeatureCollection",
  "features": [
    {
      "type": "Feature",
      "properties": {
        "norad_id": 33412,
        "name": "COSMO-SKYMED 3",
        "group": "resource",
        "lat": 71.13665729979073,
        "lon": 56.08763899446094,
        "alt_km": 531.8244114250074,
        "timestamp": "2025-12-27T15:27:10.799981+00:00",
        "meta_object_name": "COSMO-SKYMED 3",
        "meta_object_id": "2008-054A",
        "meta_epoch": "2025-12-27T07:00:11.683296",
        "meta_mean_motion": 15.05476839,
        "meta_eccentricity": 0.00171041,
        "meta_inclination": 97.845,
        "meta_ra_of_asc_node": 211.9294,
        "meta_arg_of_pericenter": 125.1715,
        "meta_mean_anomaly": 235.1116,
        "meta_ephemeris_type": 0,
        "meta_classification_type": "U",
        "meta_norad_cat_id": 33412,
        "meta_element_set_no": 999,
        "meta_rev_at_epoch": 93106,
        "meta_bstar": 0.00020931319,
        "meta_mean_motion_dot": 2.952e-05,
        "meta_mean_motion_ddot": 0,
        "tle_line1": "1 33412U 08054A   25361.29180189  .00002952  00000+0  20931-3 0  9990",
        "tle_line2": "2 33412  97.8450 211.9294 0017104 125.1715 235.1116 15.05476839931067"
      },
      "geometry": {
        "type": "Point",
        "coordinates": [
          56.08763899446094,
          71.13665729979073
        ]
      }
    },
    {
      "type": "Feature",
      "properties": {
        "norad_id": 33446,
        "name": "YAOGAN-4",
        "group": "resource",
        "lat": -47.879019250849005,
        "lon": -59.545653992975886,
        "alt_km": 620.7402937318247,
        "timestamp": "2025-12-27T15:27:10.799992+00:00",
        "meta_object_name": "YAOGAN-4",
        "meta_object_id": "2008-061A",
        "meta_epoch": "2025-12-27T05:57:11.988288",
        "meta_mean_motion": 14.82725658,
        "meta_eccentricity": 0.00129687,
        "meta_inclination": 97.9199,
        "meta_ra_of_asc_node": 291.2063,
        "meta_arg_of_pericenter": 271.6936,
        "meta_mean_anomaly": 88.2792,
        "meta_ephemeris_type": 0,
        "meta_classification_type": "U",
        "meta_norad_cat_id": 33446,
        "meta_element_set_no": 999,
        "meta_rev_at_epoch": 92018,
        "meta_bstar": 0.0002107495,
        "meta_mean_motion_dot": 1.65e-05,
        "meta_mean_motion_ddot": 0,
        "tle_line1": "1 33446U 08061A   25361.24805542  .00001650  00000+0  21075-3 0  9991",
        "tle_line2": "2 33446  97.9199 291.2063 0012968 271.6936  88.2792 14.82725658920183"
      },
      "geometry": {
        "type": "Point",
        "coordinates": [
          -59.545653992975886,
          -47.879019250849005
        ]
      }
    },
    {
      "type": "Feature",
      "properties": {
        "norad_id": 33492,
        "name": "GOSAT (IBUKI)",
        "group": "resource",
        "lat": -81.78177337006842,
        "lon": -170.46132519335634,
        "alt_km": 676.9575777575565,
        "timestamp": "2025-12-27T15:27:10.800003+00:00",
        "meta_object_name": "GOSAT (IBUKI)",
        "meta_object_id": "2009-002A",
        "meta_epoch": "2025-12-27T04:24:05.093856",
        "meta_mean_motion": 14.67553436,
        "meta_eccentricity": 0.00010508,
        "meta_inclination": 98.0771,
        "meta_ra_of_asc_node": 109.5862,
        "meta_arg_of_pericenter": 106.222,
        "meta_mean_anomaly": 253.9101,
        "meta_ephemeris_type": 0,
        "meta_classification_type": "U",
        "meta_norad_cat_id": 33492,
        "meta_element_set_no": 999,
        "meta_rev_at_epoch": 90623,
        "meta_bstar": 0.00019160166,
        "meta_mean_motion_dot": 1.039e-05,
        "meta_mean_motion_ddot": 0,
        "tle_line1": "1 33492U 09002A   25361.18339229  .00001039  00000+0  19160-3 0  9998",
        "tle_line2": "2 33492  98.0771 109.5862 0001050 106.2220 253.9101 14.67553436906230"
      },
      "geometry": {
        "type": "Point",
        "coordinates": [
          -170.46132519335634,
          -81.78177337006842
        ]
      }
    },
    {
      "type": "Feature",
      "properties": {
        "norad_id": 35681,
        "name": "DEIMOS-1",
        "group": "resource",
        "lat": 25.982263295967506,
        "lon": 157.7656092453329,
        "alt_km": 642.9116879213661,
        "timestamp": "2025-12-27T15:27:10.800014+00:00",
        "meta_object_name": "DEIMOS-1",
        "meta_object_id": "2009-041A",
        "meta_epoch": "2025-12-27T07:11:37.592160",
        "meta_mean_motion": 14.74975988,
        "meta_eccentricity": 0.00023938,
        "meta_inclination": 97.7159,
        "meta_ra_of_asc_node": 161.2261,
        "meta_arg_of_pericenter": 57.5087,
        "meta_mean_anomaly": 302.6354,
        "meta_ephemeris_type": 0,
        "meta_classification_type": "U",
        "meta_norad_cat_id": 35681,
        "meta_element_set_no": 999,
        "meta_rev_at_epoch": 88154,
        "meta_bstar": 0.00017626894,
        "meta_mean_motion_dot": 1.138e-05,
        "meta_mean_motion_ddot": 0,
        "tle_line1": "1 35681U 09041A   25361.29974065  .00001138  00000+0  17627-3 0  9994",
        "tle_line2": "2 35681  97.7159 161.2261 0002393  57.5087 302.6354 14.74975988881542"
      },
      "geometry": {
        "type": "Point",
        "coordinates": [
          157.7656092453329,
          25.982263295967506
        ]
      }
    },
    {
      "type": "Feature",
      "properties": {
        "norad_id": 35682,
        "name": "DUBAISAT-1",
        "group": "resource",
        "lat": -55.808840919820554,
        "lon": 144.0214085631069,
        "alt_km": 648.5303318635824,
        "timestamp": "2025-12-27T15:27:10.800025+00:00",
        "meta_object_name": "DUBAISAT-1",
        "meta_object_id": "2009-041B",
        "meta_epoch": "2025-12-27T07:34:00.579936",
        "meta_mean_motion": 14.7464495,
        "meta_eccentricity": 0.00092775,
        "meta_inclination": 97.98,
        "meta_ra_of_asc_node": 131.7814,
        "meta_arg_of_pericenter": 261.9531,
        "meta_mean_anomaly": 98.0625,
        "meta_ephemeris_type": 0,
        "meta_classification_type": "U",
        "meta_norad_cat_id": 35682,
        "meta_element_set_no": 999,
        "meta_rev_at_epoch": 87976,
        "meta_bstar": 0.00024412412,
        "meta_mean_motion_dot": 1.579e-05,
        "meta_mean_motion_ddot": 0,
        "tle_line1": "1 35682U 09041B   25361.31528449  .00001579  00000+0  24412-3 0  9998",
        "tle_line2": "2 35682  97.9800 131.7814 0009277 261.9531  98.0625 14.74644950879767"
      },
      "geometry": {
        "type": "Point",
        "coordinates": [
          144.0214085631069,
          -55.808840919820554
        ]
      }
    },
    {
      "type": "Feature",
      "properties": {
        "norad_id": 35931,
        "name": "OCEANSAT-2",
        "group": "resource",
        "lat": 61.46964168490834,
        "lon": -14.691351409852903,
        "alt_km": 882.7830211988585,
        "timestamp": "2025-12-27T15:27:10.800036+00:00",
        "meta_object_name": "OCEANSAT-2",
        "meta_object_id": "2009-051A",
        "meta_epoch": "2025-12-27T06:34:38.391744",
        "meta_mean_motion": 13.99623191,
        "meta_eccentricity": 0.00158515,
        "meta_inclination": 98.2218,
        "meta_ra_of_asc_node": 0.3997,
        "meta_arg_of_pericenter": 6.7944,
        "meta_mean_anomaly": 353.3435,
        "meta_ephemeris_type": 0,
        "meta_classification_type": "U",
        "meta_norad_cat_id": 35931,
        "meta_element_set_no": 999,
        "meta_rev_at_epoch": 85528,
        "meta_bstar": 6.2379526e-05,
        "meta_mean_motion_dot": 5.4e-07,
        "meta_mean_motion_ddot": 0,
        "tle_line1": "1 35931U 09051A   25361.27405546  .00000054  00000+0  62380-4 0  9997",
        "tle_line2": "2 35931  98.2218   0.3997 0015851   6.7944 353.3435 13.99623191855289"
      },
      "geometry": {
        "type": "Point",
        "coordinates": [
          -14.691351409852903,
          61.46964168490834
        ]
      }
    },
    {
      "type": "Feature",
      "properties": {
        "norad_id": 35946,
        "name": "WORLDVIEW-2 (WV-2)",
        "group": "resource",
        "lat": 64.43055006593784,
        "lon": 54.36174115714009,
        "alt_km": 756.9206079218638,
        "timestamp": "2025-12-27T15:27:10.800047+00:00",
        "meta_object_name": "WORLDVIEW-2 (WV-2)",
        "meta_object_id": "2009-055A",
        "meta_epoch": "2025-12-27T06:47:49.479648",
        "meta_mean_motion": 14.37730577,
        "meta_eccentricity": 0.00046031,
        "meta_inclination": 98.477,
        "meta_ra_of_asc_node": 72.1678,
        "meta_arg_of_pericenter": 34.5447,
        "meta_mean_anomaly": 325.6038,
        "meta_ephemeris_type": 0,
        "meta_classification_type": "U",
        "meta_norad_cat_id": 35946,
        "meta_element_set_no": 999,
        "meta_rev_at_epoch": 85094,
        "meta_bstar": 7.9943829e-05,
        "meta_mean_motion_dot": 1.97e-06,
        "meta_mean_motion_ddot": 0,
        "tle_line1": "1 35946U 09055A   25361.28321157  .00000197  00000+0  79944-4 0  9995",
        "tle_line2": "2 35946  98.4770  72.1678 0004603  34.5447 325.6038 14.37730577850942"
      },
      "geometry": {
        "type": "Point",
        "coordinates": [
          54.36174115714009,
          64.43055006593784
        ]
      }
    }
  ]
}